FLOCK 2P-1              
1 41617U 16040U   18005.16221630  .00002040  00000-0  87691-4 0  9996
2 41617  97.4391  71.5673 0012094  95.5308 264.7309 15.23744399 85415
FLOCK 2P-3              
1 41618U 16040V   18004.79880935  .00001027  00000-0  45625-4 0  9999
2 41618  97.4393  71.1244 0012007  96.7543 263.5061 15.23743324 85358
BEESAT-4                
1 41619U 16040W   18004.81034466  .00001219  00000-0  56975-4 0  9996
2 41619  97.4380  70.0709 0013403  84.4763 275.8002 15.21633279 73249
3CAT-2                  
1 41732U 16051B   18005.44825280  .00001282  00000-0  53172-4 0  9992
2 41732  97.3774 284.4901 0012149 284.2154 166.7596 15.25634958 77368
FLOCK 2E'-13            
1 41761U 98067KH  18004.82780202  .00032795  00000-0  26770-3 0  9992
2 41761  51.6348  90.7222 0006576 313.4466  46.5984 15.70255260 74461
FLOCK 2E'-14            
1 41762U 98067KJ  18004.65700667  .00012064  00000-0  11693-3 0  9996
2 41762  51.6372  91.8883 0005278 295.5269  64.5181 15.66831315 74435
FLOCK 2E'-16            
1 41763U 98067KK  18004.80245047  .00036337  00000-0  28385-3 0  9995
2 41763  51.6360  89.0972 0006086 326.8042  33.2573 15.71261757 74448
FLOCK 2E'-15            
1 41764U 98067KL  18004.74711446  .00009445  00000-0  95843-4 0  9994
2 41764  51.6374  92.4881 0004949 304.3698  55.6829 15.65994639 74396
FLOCK 2E'-18            
1 41769U 98067KM  18005.23546194  .00009294  00000-0  94143-4 0  9994
2 41769  51.6373  89.7427 0004012 328.3409  31.7345 15.66067200 74475
FLOCK 2E'-17            
1 41776U 98067KN  18005.48381181  .00035623  00000-0  30304-3 0  9995
2 41776  51.6368  87.6800 0005651 343.1216  16.9592 15.69218958 74515
FLOCK 2E'-19            
1 41777U 98067KP  18004.65896498  .00016224  00000-0  12622-3 0  9995
2 41777  51.6350  84.3046 0003433 327.8062  32.2726 15.71915588 74445
FLOCK 2E'-20            
1 41782U 98067KQ  18004.66578018  .00016400  00000-0  13604-3 0  9994
2 41782  51.6358  86.6605 0003478 321.7577  38.3174 15.70362066 74280
CANX-7                  
1 41788U 16059F   18005.52962899  .00005664  00000-0  10017-2 0  9995
2 41788  98.1942  71.5891 0032392 242.4769 117.3192 14.67431034 68233
ALSAT 1N                
1 41789U 16059G   18005.37622993  .00000090  00000-0  26261-4 0  9995
2 41789  98.1422  70.2704 0027057 238.5625 121.2936 14.64116785 68190
RAVAN                   
1 41849U 16067B   18005.18983516  .00001193  00000-0  10762-3 0  9994
2 41849  97.9363  91.5108 0008058 359.0364   1.0841 14.97497656 62730
CELTEE 1                
1 41850U 16067C   18005.17409851  .00000607  00000-0  58451-4 0  9997
2 41850  97.9344  91.2002 0008364 356.5206   3.5956 14.96720681 62716
OPTICUBE 04             
1 41851U 16067D   18004.79076537  .00000381  00000-0  38781-4 0  9999
2 41851  97.9348  90.7663 0008765   0.2385 359.8838 14.96607740 62653
AEROCUBE 8D             
1 41852U 16067E   18005.20731350 -.00000287  00000-0 -19916-4 0  9994
2 41852  97.9359  91.0553 0009565 355.5781   4.5353 14.96388672 62705
AEROCUBE 8C             
1 41853U 16067F   18005.21756535 -.00000094  00000-0 -29113-5 0  9995
2 41853  97.9353  91.0391 0009853 355.6095   4.5037 14.96350119 62703
PROMETHEUS 2-1          
1 41854U 16067G   18005.23232933  .00000526  00000-0  51729-4 0  9994
2 41854  97.9357  91.0317 0009948 355.3855   4.7272 14.96398060 62702
PROMETHEUS 2-3          
1 41855U 16067H   18004.76656811  .00000555  00000-0  54334-4 0  9994
2 41855  97.9360  90.5605 0010145 357.4051   2.7115 14.96393076 62631
LEMUR-2-XIAOQING        
1 41871U 16062C   18004.96774656  .00002428  00000-0  11384-3 0  9995
2 41871  51.6381 207.5880 0002635 206.3213 153.7632 15.23609927 61693
LEMUR-2-SOKOLSKY        
1 41872U 16062D   18005.20843166  .00000504  00000-0  34614-4 0  9992
2 41872  51.7023 206.6392 0004351 206.6012 153.4742 15.23659336 61725
LEMUR-2-ANUBHAVTHAKUR   
1 41873U 16062E   18005.55444079  .00001213  00000-0  66600-4 0  9999
2 41873  51.6360 206.8720 0004200 212.5428 147.5284 15.22053153 61736
LEMUR-2-WINGO           
1 41874U 16062F   18004.95641435  .00001917  00000-0  93746-4 0  9990
2 41874  51.6678 208.2547 0006177 194.8652 165.2144 15.23259870 61678
STARS-C                 
1 41895U 98067KR  18005.20637558  .00098150  00000-0  39273-3 0  9997
2 41895  51.6335  81.8933 0005532 350.9665   9.1238 15.85732045 59730
ITF-2                   
1 41932U 98067KU  18004.69157572  .00016716  00000-0  15516-3 0  9996
2 41932  51.6389  97.4024 0004442 304.0542  56.0032 15.67582969 55050
WASEDA-SAT3             
1 41933U 98067KV  18005.52854929  .00020746  00000-0  17369-3 0  9996
2 41933  51.6363  90.9282 0004429 312.1073  47.9548 15.69942139 55211
AOBA-VELOX 3            
1 41935U 98067KX  18005.47415446  .00018836  00000-0  16381-3 0  9999
2 41935  51.6380  92.1085 0004010 311.1477  48.9173 15.69090220 55298
OSNSAT                  
1 41939U 98067KZ  18005.42397811  .00810433  38411-3  75491-3 0  9993
2 41939  51.6245  71.1566 0008926  13.1941 346.9305 16.11515538 54815
FLOCK 3P-8              
1 41951U 17008D   18005.45803700  .00002318  00000-0  99381-4 0  9995
2 41951  97.4713  71.1116 0008028 192.6496 167.4540 15.23748701 49317
FLOCK 3P-51             
1 41952U 17008E   18004.89896293  .00000938  00000-0  41922-4 0  9996
2 41952  97.4723  70.6589 0007425 214.1610 145.9150 15.23798969 49246
FLOCK 3P-37             
1 41953U 17008F   18005.21112050  .00002141  00000-0  90380-4 0  9996
2 41953  97.4718  71.1508 0006638 217.0766 143.0014 15.24360627 49297
INS-1B                  
1 41954U 17008G   18005.48685960  .00001173  00000-0  53583-4 0  9999
2 41954  97.4689  70.6713 0009128 194.7348 165.3623 15.22546181 49248
FLOCK 3P-19             
1 41955U 17008H   18004.94638567  .00002459  00000-0  10522-3 0  9994
2 41955  97.4712  70.5524 0008748 195.5923 164.5046 15.23746957 49165
FLOCK 3P-24             
1 41956U 17008J   18004.86690152  .00002621  00000-0  11093-3 0  9999
2 41956  97.4706  70.5010 0008653 192.0959 168.0072 15.24065981 49233
FLOCK 3P-18             
1 41957U 17008K   18005.13383430  .00002102  00000-0  89864-4 0  9995
2 41957  97.4707  70.7614 0008694 193.2847 166.8162 15.23943604 49110
FLOCK 3P-22             
1 41958U 17008L   18005.47723174  .00000614  00000-0  28622-4 0  9997
2 41958  97.4714  71.0740 0008631 192.2504 167.8525 15.23634443 49159
FLOCK 3P-21             
1 41959U 17008M   18004.87637472  .00000692  00000-0  31872-4 0  9993
2 41959  97.4722  70.5198 0008389 196.1284 163.9687 15.23627548 49073
FLOCK 3P-28             
1 41960U 17008N   18004.93940431  .00001481  00000-0  64578-4 0  9990
2 41960  97.4717  70.5804 0008264 193.9915 166.1094 15.23737294 49168
FLOCK 3P-26             
1 41961U 17008P   18005.14235164  .00001884  00000-0  81280-4 0  9991
2 41961  97.4713  70.7649 0008507 192.7265 167.3758 15.23761459 49114
FLOCK 3P-17             
1 41962U 17008Q   18005.45377352  .00003864  00000-0  16344-3 0  9990
2 41962  97.4711  71.1162 0008231 194.7050 165.3948 15.23788507 49118
FLOCK 3P-27             
1 41963U 17008R   18005.15158995  .00001674  00000-0  72530-4 0  9995
2 41963  97.4715  70.7547 0008599 193.4903 166.6105 15.23782523 49116
FLOCK 3P-25             
1 41964U 17008S   18004.94284023  .00001464  00000-0  63892-4 0  9992
2 41964  97.4715  70.5671 0008238 194.2862 165.8144 15.23740802 49068
FLOCK 3P-4              
1 41965U 17008T   18005.13288107  .00001558  00000-0  67772-4 0  9997
2 41965  97.4717  70.7833 0008109 194.8171 165.2830 15.23743490 49195
FLOCK 3P-2              
1 41966U 17008U   18005.39667014  .00001616  00000-0  70212-4 0  9992
2 41966  97.4720  71.0512 0008120 191.7688 168.3360 15.23742017 49152
FLOCK 3P-1              
1 41967U 17008V   18005.42382076  .00001750  00000-0  76120-4 0  9992
2 41967  97.4717  71.0214 0008189 193.9484 166.1527 15.23584881 49155
FLOCK 3P-3              
1 41968U 17063B   18005.46591207  .00001822  00000-0  78816-4 0  9990
2 41968  97.4713  71.1014 0008196 192.0756 168.0285 15.23718661 49158
FLOCK 3P-6              
1 41969U 17008X   18005.45979121  .00002728  00000-0  11641-3 0  9992
2 41969  97.4716  71.1208 0008037 191.3905 168.7152 15.23754119 49157
FLOCK 3P-7              
1 41970U 17008Y   18004.71697521  .00001035  00000-0  45997-4 0  9995
2 41970  97.4721  70.4305 0007962 197.3915 162.7050 15.23778310 49046
FLOCK 3P-5              
1 41971U 17008Z   18004.80063690  .00001404  00000-0  61395-4 0  9990
2 41971  97.4723  70.4786 0007915 197.0616 163.0355 15.23745198 48998
FLOCK 3P-12             
1 41972U 17008AA  18004.86477755  .00002797  00000-0  11926-3 0  9998
2 41972  97.4718  70.5431 0007773 196.9487 163.1491 15.23758916 49150
FLOCK 3P-9              
1 41973U 17008AB  18004.73680702  .00001855  00000-0  80113-4 0  9992
2 41973  97.4723  70.4133 0007937 195.3100 164.7898 15.23752738 49134
FLOCK 3P-10             
1 41974U 17008AC  18004.72380806  .00001429  00000-0  62412-4 0  9993
2 41974  97.4724  70.4350 0007752 196.7461 163.3521 15.23759000 49011
FLOCK 3P-11             
1 41975U 17008AD  18004.86952134  .00002946  00000-0  12551-3 0  9991
2 41975  97.4720  70.5422 0008046 195.2787 164.8208 15.23742685 49043
FLOCK 3P-60             
1 41976U 17008AE  18004.90803505  .00001697  00000-0  73450-4 0  9992
2 41976  97.4725  70.6516 0007636 197.2317 162.8662 15.23802156 48411
FLOCK 3P-58             
1 41977U 17008AF  18004.79972913  .00001537  00000-0  66912-4 0  9998
2 41977  97.4722  70.4797 0007685 196.5847 163.5140 15.23743074 49224
FLOCK 3P-57             
1 41978U 17008AG  18004.72559860  .00001313  00000-0  57596-4 0  9994
2 41978  97.4723  70.4263 0007806 195.5135 164.5864 15.23733994 49053
FLOCK 3P-75             
1 41979U 17008AH  18005.38119801  .00001569  00000-0  68225-4 0  9999
2 41979  97.4744  71.1801 0007970 196.6547 163.4429 15.23755000 49309
